[{"OBJECT_NAME":"OBJECT A","OBJECT_ID":"2024-203A","EPOCH":"2026-03-09T23:31:20.812800","MEAN_MOTION":15.27300571,"ECCENTRICITY":0.00108989,"INCLINATION":97.4288,"RA_OF_ASC_NODE":139.5608,"ARG_OF_PERICENTER":322.6893,"MEAN_ANOMALY":37.3588,"EPHEMERIS_TYPE":0,"CLASSIFICATION_TYPE":"U","NORAD_CAT_ID":61869,"ELEMENT_SET_NO":999,"REV_AT_EPOCH":7380,"BSTAR":0.00061472876,"MEAN_MOTION_DOT":0.00016411,"MEAN_MOTION_DDOT":0},{"OBJECT_NAME":"STARLINK-33593","OBJECT_ID":"2025-015Y","EPOCH":"2026-03-09T22:44:20.185440","MEAN_MOTION":15.30213377,"ECCENTRICITY":7.753e-5,"INCLINATION":53.1623,"RA_OF_ASC_NODE":321.0396,"ARG_OF_PERICENTER":86.5686,"MEAN_ANOMALY":273.5403,"EPHEMERIS_TYPE":0,"CLASSIFICATION_TYPE":"U","NORAD_CAT_ID":62780,"ELEMENT_SET_NO":999,"REV_AT_EPOCH":6452,"BSTAR":0.0012277943,"MEAN_MOTION_DOT":0.00036197,"MEAN_MOTION_DDOT":0}]
